MALLIGYONG-1            
1 58400U 23179A   24064.97073219  .00006718  00000+0  30329-3 0  9994
2 58400  97.4188 313.3740 0007785 267.5816  92.4528 15.21282014 15876
